[{"OBJECT_NAME":"ONEWEB-0328","OBJECT_ID":"2021-083M","EPOCH":"2026-01-08T05:57:48.801600","MEAN_MOTION":13.1346923,"ECCENTRICITY":0.00016519,"INCLINATION":87.8995,"RA_OF_ASC_NODE":351.9864,"ARG_OF_PERICENTER":88.87,"MEAN_ANOMALY":271.2619,"EPHEMERIS_TYPE":0,"CLASSIFICATION_TYPE":"U","NORAD_CAT_ID":49197,"ELEMENT_SET_NO":999,"REV_AT_EPOCH":20990,"BSTAR":0.00030531154,"MEAN_MOTION_DOT":1.24e-6,"MEAN_MOTION_DDOT":0},{"OBJECT_NAME":"ONEWEB-0331","OBJECT_ID":"2021-083N","EPOCH":"2026-01-08T06:36:46.572192","MEAN_MOTION":13.18684274,"ECCENTRICITY":0.00020099,"INCLINATION":87.9178,"RA_OF_ASC_NODE":7.1977,"ARG_OF_PERICENTER":96.7121,"MEAN_ANOMALY":263.424,"EPHEMERIS_TYPE":0,"CLASSIFICATION_TYPE":"U","NORAD_CAT_ID":49198,"ELEMENT_SET_NO":999,"REV_AT_EPOCH":20893,"BSTAR":-4.4045215e-5,"MEAN_MOTION_DOT":-4.0e-8,"MEAN_MOTION_DDOT":0},{"OBJECT_NAME":"ONEWEB-0333","OBJECT_ID":"2021-083P","EPOCH":"2026-01-08T07:40:11.881344","MEAN_MOTION":13.13468758,"ECCENTRICITY":0.00017981,"INCLINATION":87.8978,"RA_OF_ASC_NODE":352.0209,"ARG_OF_PERICENTER":83.8564,"MEAN_ANOMALY":276.277,"EPHEMERIS_TYPE":0,"CLASSIFICATION_TYPE":"U","NORAD_CAT_ID":49199,"ELEMENT_SET_NO":999,"REV_AT_EPOCH":20992,"BSTAR":0.00064779427,"MEAN_MOTION_DOT":2.49e-6,"MEAN_MOTION_DDOT":0},{"OBJECT_NAME":"ONEWEB-0334","OBJECT_ID":"2021-083Q","EPOCH":"2026-01-08T07:05:49.193664","MEAN_MOTION":13.20770641,"ECCENTRICITY":0.00017024,"INCLINATION":87.9221,"RA_OF_ASC_NODE":306.353,"ARG_OF_PERICENTER":44.4365,"MEAN_ANOMALY":315.6904,"EPHEMERIS_TYPE":0,"CLASSIFICATION_TYPE":"U","NORAD_CAT_ID":49200,"ELEMENT_SET_NO":999,"REV_AT_EPOCH":21568,"BSTAR":0.00016762383,"MEAN_MOTION_DOT":8.1e-7,"MEAN_MOTION_DDOT":0},{"OBJECT_NAME":"ONEWEB-0335","OBJECT_ID":"2021-083R","EPOCH":"2026-01-08T07:32:53.290752","MEAN_MOTION":13.13470093,"ECCENTRICITY":0.00019032,"INCLINATION":87.8987,"RA_OF_ASC_NODE":352.0113,"ARG_OF_PERICENTER":89.0576,"MEAN_ANOMALY":271.0771,"EPHEMERIS_TYPE":0,"CLASSIFICATION_TYPE":"U","NORAD_CAT_ID":49201,"ELEMENT_SET_NO":999,"REV_AT_EPOCH":20993,"BSTAR":0.00083961713,"MEAN_MOTION_DOT":3.19e-6,"MEAN_MOTION_DDOT":0},{"OBJECT_NAME":"ONEWEB-0336","OBJECT_ID":"2021-083S","EPOCH":"2026-01-08T05:01:44.181696","MEAN_MOTION":13.13469116,"ECCENTRICITY":0.00020126,"INCLINATION":87.8988,"RA_OF_ASC_NODE":352.0294,"ARG_OF_PERICENTER":95.7788,"MEAN_ANOMALY":264.3571,"EPHEMERIS_TYPE":0,"CLASSIFICATION_TYPE":"U","NORAD_CAT_ID":49202,"ELEMENT_SET_NO":999,"REV_AT_EPOCH":20991,"BSTAR":-0.00080815392,"MEAN_MOTION_DOT":-2.82e-6,"MEAN_MOTION_DDOT":0},{"OBJECT_NAME":"ONEWEB-0337","OBJECT_ID":"2021-083T","EPOCH":"2026-01-08T05:16:09.646176","MEAN_MOTION":13.13470634,"ECCENTRICITY":0.00017282,"INCLINATION":87.8984,"RA_OF_ASC_NODE":352.0389,"ARG_OF_PERICENTER":92.1283,"MEAN_ANOMALY":268.0044,"EPHEMERIS_TYPE":0,"CLASSIFICATION_TYPE":"U","NORAD_CAT_ID":49203,"ELEMENT_SET_NO":999,"REV_AT_EPOCH":20991,"BSTAR":-0.00047818638,"MEAN_MOTION_DOT":-1.62e-6,"MEAN_MOTION_DDOT":0},{"OBJECT_NAME":"ONEWEB-0338","OBJECT_ID":"2021-083U","EPOCH":"2026-01-08T06:29:28.014432","MEAN_MOTION":13.20772404,"ECCENTRICITY":0.0001608,"INCLINATION":87.9223,"RA_OF_ASC_NODE":306.3613,"ARG_OF_PERICENTER":67.8013,"MEAN_ANOMALY":292.3291,"EPHEMERIS_TYPE":0,"CLASSIFICATION_TYPE":"U","NORAD_CAT_ID":49204,"ELEMENT_SET_NO":999,"REV_AT_EPOCH":21570,"BSTAR":2.38043e-5,"MEAN_MOTION_DOT":2.3e-7,"MEAN_MOTION_DDOT":0},{"OBJECT_NAME":"ONEWEB-0339","OBJECT_ID":"2021-083V","EPOCH":"2026-01-08T05:28:33.106944","MEAN_MOTION":13.13470788,"ECCENTRICITY":0.0001615,"INCLINATION":87.8986,"RA_OF_ASC_NODE":352.0202,"ARG_OF_PERICENTER":84.7111,"MEAN_ANOMALY":275.4202,"EPHEMERIS_TYPE":0,"CLASSIFICATION_TYPE":"U","NORAD_CAT_ID":49205,"ELEMENT_SET_NO":999,"REV_AT_EPOCH":20989,"BSTAR":0.00017554841,"MEAN_MOTION_DOT":7.7e-7,"MEAN_MOTION_DDOT":0},{"OBJECT_NAME":"ONEWEB-0340","OBJECT_ID":"2021-083W","EPOCH":"2026-01-08T06:17:46.442112","MEAN_MOTION":13.18684789,"ECCENTRICITY":0.00018532,"INCLINATION":87.918,"RA_OF_ASC_NODE":7.2052,"ARG_OF_PERICENTER":89.7045,"MEAN_ANOMALY":270.43,"EPHEMERIS_TYPE":0,"CLASSIFICATION_TYPE":"U","NORAD_CAT_ID":49206,"ELEMENT_SET_NO":999,"REV_AT_EPOCH":20889,"BSTAR":-0.00010679799,"MEAN_MOTION_DOT":-2.9e-7,"MEAN_MOTION_DDOT":0},{"OBJECT_NAME":"ONEWEB-0341","OBJECT_ID":"2021-083X","EPOCH":"2026-01-08T06:27:16.667424","MEAN_MOTION":13.18684493,"ECCENTRICITY":0.0001527,"INCLINATION":87.9179,"RA_OF_ASC_NODE":7.2149,"ARG_OF_PERICENTER":105.013,"MEAN_ANOMALY":255.1171,"EPHEMERIS_TYPE":0,"CLASSIFICATION_TYPE":"U","NORAD_CAT_ID":49207,"ELEMENT_SET_NO":999,"REV_AT_EPOCH":20891,"BSTAR":1.6377985e-5,"MEAN_MOTION_DOT":1.9e-7,"MEAN_MOTION_DDOT":0},{"OBJECT_NAME":"ONEWEB-0342","OBJECT_ID":"2021-083Y","EPOCH":"2026-01-08T06:38:33.229536","MEAN_MOTION":13.2077109,"ECCENTRICITY":0.0001668,"INCLINATION":87.9232,"RA_OF_ASC_NODE":306.3332,"ARG_OF_PERICENTER":72.7668,"MEAN_ANOMALY":287.3648,"EPHEMERIS_TYPE":0,"CLASSIFICATION_TYPE":"U","NORAD_CAT_ID":49208,"ELEMENT_SET_NO":999,"REV_AT_EPOCH":21567,"BSTAR":7.7683732e-5,"MEAN_MOTION_DOT":4.5e-7,"MEAN_MOTION_DDOT":0},{"OBJECT_NAME":"ONEWEB-0343","OBJECT_ID":"2021-083Z","EPOCH":"2026-01-08T06:39:09.417312","MEAN_MOTION":13.18686084,"ECCENTRICITY":0.00012317,"INCLINATION":87.9178,"RA_OF_ASC_NODE":7.2064,"ARG_OF_PERICENTER":94.9346,"MEAN_ANOMALY":265.1927,"EPHEMERIS_TYPE":0,"CLASSIFICATION_TYPE":"U","NORAD_CAT_ID":49209,"ELEMENT_SET_NO":999,"REV_AT_EPOCH":20896,"BSTAR":9.391332e-5,"MEAN_MOTION_DOT":5.0e-7,"MEAN_MOTION_DDOT":0},{"OBJECT_NAME":"ONEWEB-0344","OBJECT_ID":"2021-083AA","EPOCH":"2026-01-08T05:21:14.490432","MEAN_MOTION":13.13469515,"ECCENTRICITY":0.00015963,"INCLINATION":87.8981,"RA_OF_ASC_NODE":352.0508,"ARG_OF_PERICENTER":98.178,"MEAN_ANOMALY":261.953,"EPHEMERIS_TYPE":0,"CLASSIFICATION_TYPE":"U","NORAD_CAT_ID":49210,"ELEMENT_SET_NO":999,"REV_AT_EPOCH":20989,"BSTAR":-0.00027753363,"MEAN_MOTION_DOT":-8.9e-7,"MEAN_MOTION_DDOT":0},{"OBJECT_NAME":"ONEWEB-0345","OBJECT_ID":"2021-083AB","EPOCH":"2026-01-08T05:09:02.709216","MEAN_MOTION":13.13471067,"ECCENTRICITY":0.00015528,"INCLINATION":87.8989,"RA_OF_ASC_NODE":352.0143,"ARG_OF_PERICENTER":95.9045,"MEAN_ANOMALY":264.2261,"EPHEMERIS_TYPE":0,"CLASSIFICATION_TYPE":"U","NORAD_CAT_ID":49211,"ELEMENT_SET_NO":999,"REV_AT_EPOCH":20990,"BSTAR":-0.00064027026,"MEAN_MOTION_DOT":-2.21e-6,"MEAN_MOTION_DDOT":0},{"OBJECT_NAME":"ONEWEB-0346","OBJECT_ID":"2021-083AC","EPOCH":"2026-01-08T06:34:23.526624","MEAN_MOTION":13.18683749,"ECCENTRICITY":0.00023852,"INCLINATION":87.9174,"RA_OF_ASC_NODE":7.2208,"ARG_OF_PERICENTER":97.0352,"MEAN_ANOMALY":263.1051,"EPHEMERIS_TYPE":0,"CLASSIFICATION_TYPE":"U","NORAD_CAT_ID":49212,"ELEMENT_SET_NO":999,"REV_AT_EPOCH":20890,"BSTAR":3.9694187e-5,"MEAN_MOTION_DOT":2.9e-7,"MEAN_MOTION_DDOT":0},{"OBJECT_NAME":"ONEWEB-0348","OBJECT_ID":"2021-083AD","EPOCH":"2026-01-08T06:24:53.684064","MEAN_MOTION":13.20780604,"ECCENTRICITY":0.00019387,"INCLINATION":87.9226,"RA_OF_ASC_NODE":306.3392,"ARG_OF_PERICENTER":93.2599,"MEAN_ANOMALY":266.8756,"EPHEMERIS_TYPE":0,"CLASSIFICATION_TYPE":"U","NORAD_CAT_ID":49213,"ELEMENT_SET_NO":999,"REV_AT_EPOCH":21570,"BSTAR":0.0029149654,"MEAN_MOTION_DOT":1.198e-5,"MEAN_MOTION_DDOT":0}]
