ONEWEB-0328             
1 49197U 21083M   26008.24848150  .00000124  00000+0  30531-3 0  9993
2 49197  87.8995 351.9864 0001651  88.8700 271.2619 13.13469230209908
ONEWEB-0331             
1 49198U 21083N   26008.27553903 -.00000004  00000+0 -44045-4 0  9991
2 49198  87.9178   7.1977 0002009  96.7121 263.4240 13.18684274208938
ONEWEB-0333             
1 49199U 21083P   26008.31958196  .00000249  00000+0  64779-3 0  9994
2 49199  87.8978 352.0209 0001798  83.8564 276.2770 13.13468758209920
ONEWEB-0334             
1 49200U 21083Q   26008.29570826  .00000081  00000+0  16762-3 0  9997
2 49200  87.9221 306.3530 0001702  44.4365 315.6904 13.20770641215683
ONEWEB-0335             
1 49201U 21083R   26008.31450568  .00000319  00000+0  83962-3 0  9991
2 49201  87.8987 352.0113 0001903  89.0576 271.0771 13.13470093209937
ONEWEB-0336             
1 49202U 21083S   26008.20953914 -.00000282  00000+0 -80815-3 0  9998
2 49202  87.8988 352.0294 0002012  95.7788 264.3571 13.13469116209915
ONEWEB-0337             
1 49203U 21083T   26008.21955609 -.00000162  00000+0 -47819-3 0  9997
2 49203  87.8984 352.0389 0001728  92.1283 268.0044 13.13470634209914
ONEWEB-0338             
1 49204U 21083U   26008.27046313  .00000023  00000+0  23804-4 0  9990
2 49204  87.9223 306.3613 0001608  67.8013 292.3291 13.20772404215707
ONEWEB-0339             
1 49205U 21083V   26008.22816096  .00000077  00000+0  17555-3 0  9993
2 49205  87.8986 352.0202 0001615  84.7111 275.4202 13.13470788209899
ONEWEB-0340             
1 49206U 21083W   26008.26234308 -.00000029  00000+0 -10680-3 0  9999
2 49206  87.9180   7.2052 0001853  89.7045 270.4300 13.18684789208890
ONEWEB-0341             
1 49207U 21083X   26008.26894291  .00000019  00000+0  16378-4 0  9991
2 49207  87.9179   7.2149 0001527 105.0130 255.1171 13.18684493208912
ONEWEB-0342             
1 49208U 21083Y   26008.27677349  .00000045  00000+0  77684-4 0  9992
2 49208  87.9232 306.3332 0001668  72.7668 287.3648 13.20771090215672
ONEWEB-0343             
1 49209U 21083Z   26008.27719233  .00000050  00000+0  93913-4 0  9991
2 49209  87.9178   7.2064 0001231  94.9346 265.1927 13.18686084208969
ONEWEB-0344             
1 49210U 21083AA  26008.22308438 -.00000089  00000+0 -27753-3 0  9991
2 49210  87.8981 352.0508 0001596  98.1780 261.9530 13.13469515209898
ONEWEB-0345             
1 49211U 21083AB  26008.21461469 -.00000221  00000+0 -64027-3 0  9998
2 49211  87.8989 352.0143 0001552  95.9045 264.2261 13.13471067209907
ONEWEB-0346             
1 49212U 21083AC  26008.27388341  .00000029  00000+0  39694-4 0  9999
2 49212  87.9174   7.2208 0002385  97.0352 263.1051 13.18683749208906
ONEWEB-0348             
1 49213U 21083AD  26008.26728801  .00001198  00000+0  29150-2 0  9990
2 49213  87.9226 306.3392 0001938  93.2599 266.8756 13.20780604215705
